{
  "type": "FeatureCollection",
  "features": [
    {
      "type": "Feature",
      "properties": {
        "norad_id": 67018,
        "name": "STARLINK-36106",
        "group": "last-30-days",
        "lat": 50.560377547229805,
        "lon": 84.97729828379741,
        "alt_km": 321.04104353585717,
        "timestamp": "2025-12-23T22:42:31.703774+00:00",
        "meta_object_name": "STARLINK-36106",
        "meta_object_id": "2025-293R",
        "meta_epoch": "2025-12-23T06:00:00.999648",
        "meta_mean_motion": 15.84538977,
        "meta_eccentricity": 0.00038088,
        "meta_inclination": 69.9929,
        "meta_ra_of_asc_node": 293.2672,
        "meta_arg_of_pericenter": 272.9658,
        "meta_mean_anomaly": 204.6708,
        "meta_ephemeris_type": 0,
        "meta_classification_type": "U",
        "meta_norad_cat_id": 67018,
        "meta_element_set_no": 999,
        "meta_rev_at_epoch": 191,
        "meta_bstar": -0.0078705049,
        "meta_mean_motion_dot": -0.01589582,
        "meta_mean_motion_ddot": 0,
        "tle_line1": "1 67018U 25293R   25357.25001157 -.01589582  00000+0 -78705-2 0  9994",
        "tle_line2": "2 67018  69.9929 293.2672 0003808 272.9658 204.6708 15.84538977  1912"
      },
      "geometry": {
        "type": "Point",
        "coordinates": [
          84.97729828379741,
          50.560377547229805
        ]
      }
    },
    {
      "type": "Feature",
      "properties": {
        "norad_id": 67019,
        "name": "STARLINK-35688",
        "group": "last-30-days",
        "lat": 48.61082777966434,
        "lon": 86.84573814324051,
        "alt_km": 321.155711946436,
        "timestamp": "2025-12-23T22:42:31.703787+00:00",
        "meta_object_name": "STARLINK-35688",
        "meta_object_id": "2025-293S",
        "meta_epoch": "2025-12-23T06:00:00.999648",
        "meta_mean_motion": 15.8452808,
        "meta_eccentricity": 0.00036456,
        "meta_inclination": 69.9928,
        "meta_ra_of_asc_node": 293.2644,
        "meta_arg_of_pericenter": 270.8955,
        "meta_mean_anomaly": 209.0666,
        "meta_ephemeris_type": 0,
        "meta_classification_type": "U",
        "meta_norad_cat_id": 67019,
        "meta_element_set_no": 999,
        "meta_rev_at_epoch": 199,
        "meta_bstar": -0.0078870748,
        "meta_mean_motion_dot": -0.01591604,
        "meta_mean_motion_ddot": 0,
        "tle_line1": "1 67019U 25293S   25357.25001157 -.01591604  00000+0 -78871-2 0  9997",
        "tle_line2": "2 67019  69.9928 293.2644 0003645 270.8955 209.0666 15.84528080  1991"
      },
      "geometry": {
        "type": "Point",
        "coordinates": [
          86.84573814324051,
          48.61082777966434
        ]
      }
    },
    {
      "type": "Feature",
      "properties": {
        "norad_id": 67020,
        "name": "STARLINK-36172",
        "group": "last-30-days",
        "lat": 46.20799534436291,
        "lon": 88.92668626272827,
        "alt_km": 321.6159593428574,
        "timestamp": "2025-12-23T22:42:31.703797+00:00",
        "meta_object_name": "STARLINK-36172",
        "meta_object_id": "2025-293T",
        "meta_epoch": "2025-12-23T06:00:00.999648",
        "meta_mean_motion": 15.84498594,
        "meta_eccentricity": 0.00037385,
        "meta_inclination": 69.9927,
        "meta_ra_of_asc_node": 293.2612,
        "meta_arg_of_pericenter": 272.4089,
        "meta_mean_anomaly": 210.4091,
        "meta_ephemeris_type": 0,
        "meta_classification_type": "U",
        "meta_norad_cat_id": 67020,
        "meta_element_set_no": 999,
        "meta_rev_at_epoch": 191,
        "meta_bstar": -0.0078960883,
        "meta_mean_motion_dot": -0.01591315,
        "meta_mean_motion_ddot": 0,
        "tle_line1": "1 67020U 25293T   25357.25001157 -.01591315  00000+0 -78961-2 0  9998",
        "tle_line2": "2 67020  69.9927 293.2612 0003738 272.4089 210.4091 15.84498594  1912"
      },
      "geometry": {
        "type": "Point",
        "coordinates": [
          88.92668626272827,
          46.20799534436291
        ]
      }
    },
    {
      "type": "Feature",
      "properties": {
        "norad_id": 67021,
        "name": "STARLINK-36184",
        "group": "last-30-days",
        "lat": 43.95297706406835,
        "lon": 90.69515058721873,
        "alt_km": 321.877407224747,
        "timestamp": "2025-12-23T22:42:31.703807+00:00",
        "meta_object_name": "STARLINK-36184",
        "meta_object_id": "2025-293U",
        "meta_epoch": "2025-12-23T06:00:00.999648",
        "meta_mean_motion": 15.84474344,
        "meta_eccentricity": 0.0003699,
        "meta_inclination": 69.9928,
        "meta_ra_of_asc_node": 293.2578,
        "meta_arg_of_pericenter": 270.7902,
        "meta_mean_anomaly": 214.6606,
        "meta_ephemeris_type": 0,
        "meta_classification_type": "U",
        "meta_norad_cat_id": 67021,
        "meta_element_set_no": 999,
        "meta_rev_at_epoch": 191,
        "meta_bstar": -0.0078929154,
        "meta_mean_motion_dot": -0.01589082,
        "meta_mean_motion_ddot": 0,
        "tle_line1": "1 67021U 25293U   25357.25001157 -.01589082  00000+0 -78929-2 0  9991",
        "tle_line2": "2 67021  69.9928 293.2578 0003699 270.7902 214.6606 15.84474344  1911"
      },
      "geometry": {
        "type": "Point",
        "coordinates": [
          90.69515058721873,
          43.95297706406835
        ]
      }
    },
    {
      "type": "Feature",
      "properties": {
        "norad_id": 67022,
        "name": "STARLINK-36209",
        "group": "last-30-days",
        "lat": 41.35540699396981,
        "lon": 92.55077602418434,
        "alt_km": 322.4461801588477,
        "timestamp": "2025-12-23T22:42:31.703817+00:00",
        "meta_object_name": "STARLINK-36209",
        "meta_object_id": "2025-293V",
        "meta_epoch": "2025-12-23T06:00:00.999648",
        "meta_mean_motion": 15.84437864,
        "meta_eccentricity": 0.00037629,
        "meta_inclination": 69.9926,
        "meta_ra_of_asc_node": 293.2544,
        "meta_arg_of_pericenter": 274.5902,
        "meta_mean_anomaly": 213.8798,
        "meta_ephemeris_type": 0,
        "meta_classification_type": "U",
        "meta_norad_cat_id": 67022,
        "meta_element_set_no": 999,
        "meta_rev_at_epoch": 191,
        "meta_bstar": -0.0078990938,
        "meta_mean_motion_dot": -0.01587793,
        "meta_mean_motion_ddot": 0,
        "tle_line1": "1 67022U 25293V   25357.25001157 -.01587793  00000+0 -78991-2 0  9998",
        "tle_line2": "2 67022  69.9926 293.2544 0003762 274.5902 213.8798 15.84437864  1915"
      },
      "geometry": {
        "type": "Point",
        "coordinates": [
          92.55077602418434,
          41.35540699396981
        ]
      }
    },
    {
      "type": "Feature",
      "properties": {
        "norad_id": 67023,
        "name": "STARLINK-36191",
        "group": "last-30-days",
        "lat": 39.13397655075722,
        "lon": 94.00840392222592,
        "alt_km": 322.76952137578064,
        "timestamp": "2025-12-23T22:42:31.703829+00:00",
        "meta_object_name": "STARLINK-36191",
        "meta_object_id": "2025-293W",
        "meta_epoch": "2025-12-23T06:00:00.999648",
        "meta_mean_motion": 15.84421902,
        "meta_eccentricity": 0.00037628,
        "meta_inclination": 69.9925,
        "meta_ra_of_asc_node": 293.2508,
        "meta_arg_of_pericenter": 273.861,
        "meta_mean_anomaly": 217.1427,
        "meta_ephemeris_type": 0,
        "meta_classification_type": "U",
        "meta_norad_cat_id": 67023,
        "meta_element_set_no": 999,
        "meta_rev_at_epoch": 180,
        "meta_bstar": -0.0079323506,
        "meta_mean_motion_dot": -0.01592577,
        "meta_mean_motion_ddot": 0,
        "tle_line1": "1 67023U 25293W   25357.25001157 -.01592577  00000+0 -79324-2 0  9996",
        "tle_line2": "2 67023  69.9925 293.2508 0003762 273.8610 217.1427 15.84421902  1803"
      },
      "geometry": {
        "type": "Point",
        "coordinates": [
          94.00840392222592,
          39.13397655075722
        ]
      }
    },
    {
      "type": "Feature",
      "properties": {
        "norad_id": 67024,
        "name": "STARLINK-36192",
        "group": "last-30-days",
        "lat": 36.65348564581301,
        "lon": 95.52001456380692,
        "alt_km": 323.1420119177483,
        "timestamp": "2025-12-23T22:42:31.703839+00:00",
        "meta_object_name": "STARLINK-36192",
        "meta_object_id": "2025-293X",
        "meta_epoch": "2025-12-23T06:00:00.999648",
        "meta_mean_motion": 15.84395404,
        "meta_eccentricity": 0.00037651,
        "meta_inclination": 69.9928,
        "meta_ra_of_asc_node": 293.2477,
        "meta_arg_of_pericenter": 273.1498,
        "meta_mean_anomaly": 220.6741,
        "meta_ephemeris_type": 0,
        "meta_classification_type": "U",
        "meta_norad_cat_id": 67024,
        "meta_element_set_no": 999,
        "meta_rev_at_epoch": 191,
        "meta_bstar": -0.0079493938,
        "meta_mean_motion_dot": -0.01593794,
        "meta_mean_motion_ddot": 0,
        "tle_line1": "1 67024U 25293X   25357.25001157 -.01593794  00000+0 -79494-2 0  9997",
        "tle_line2": "2 67024  69.9928 293.2477 0003765 273.1498 220.6741 15.84395404  1919"
      },
      "geometry": {
        "type": "Point",
        "coordinates": [
          95.52001456380692,
          36.65348564581301
        ]
      }
    }
  ]
}